{
  "type": "FeatureCollection",
  "features": [
    {
      "type": "Feature",
      "properties": {
        "norad_id": 31051,
        "name": "FENGYUN 1C DEB",
        "group": "fengyun-1c-debris",
        "lat": 3.3772187353304246,
        "lon": -159.14991814816935,
        "alt_km": 860.5177483207563,
        "timestamp": "2025-12-15T20:48:54.163989+00:00",
        "meta_object_name": "FENGYUN 1C DEB",
        "meta_object_id": "1999-025BEV",
        "meta_epoch": "2025-12-12T21:48:30.367584",
        "meta_mean_motion": 14.03033745,
        "meta_eccentricity": 0.00534524,
        "meta_inclination": 98.8183,
        "meta_ra_of_asc_node": 17.4591,
        "meta_arg_of_pericenter": 135.0078,
        "meta_mean_anomaly": 225.5438,
        "meta_ephemeris_type": 0,
        "meta_classification_type": "U",
        "meta_norad_cat_id": 31051,
        "meta_element_set_no": 999,
        "meta_rev_at_epoch": 63821,
        "meta_bstar": 0.00016986752,
        "meta_mean_motion_dot": 2.25e-06,
        "meta_mean_motion_ddot": 0,
        "tle_line1": "1 31051U 99025BEV 25346.90868481  .00000225  00000+0  16987-3 0  9991",
        "tle_line2": "2 31051  98.8183  17.4591 0053452 135.0078 225.5438 14.03033745638218"
      },
      "geometry": {
        "type": "Point",
        "coordinates": [
          -159.14991814816935,
          3.3772187353304246
        ]
      }
    },
    {
      "type": "Feature",
      "properties": {
        "norad_id": 31053,
        "name": "FENGYUN 1C DEB",
        "group": "fengyun-1c-debris",
        "lat": 72.86131800947021,
        "lon": -37.73339934820275,
        "alt_km": 754.6798612400808,
        "timestamp": "2025-12-15T20:48:54.163999+00:00",
        "meta_object_name": "FENGYUN 1C DEB",
        "meta_object_id": "1999-025BEX",
        "meta_epoch": "2025-12-14T07:40:45.863328",
        "meta_mean_motion": 13.75879092,
        "meta_eccentricity": 0.0309088,
        "meta_inclination": 98.7934,
        "meta_ra_of_asc_node": 110.708,
        "meta_arg_of_pericenter": 90.7576,
        "meta_mean_anomaly": 272.8998,
        "meta_ephemeris_type": 0,
        "meta_classification_type": "U",
        "meta_norad_cat_id": 31053,
        "meta_element_set_no": 999,
        "meta_rev_at_epoch": 93498,
        "meta_bstar": 0.0016967079,
        "meta_mean_motion_dot": 2.295e-05,
        "meta_mean_motion_ddot": 0,
        "tle_line1": "1 31053U 99025BEX 25348.31997527  .00002295  00000+0  16967-2 0  9990",
        "tle_line2": "2 31053  98.7934 110.7080 0309088  90.7576 272.8998 13.75879092934982"
      },
      "geometry": {
        "type": "Point",
        "coordinates": [
          -37.73339934820275,
          72.86131800947021
        ]
      }
    },
    {
      "type": "Feature",
      "properties": {
        "norad_id": 31054,
        "name": "FENGYUN 1C DEB",
        "group": "fengyun-1c-debris",
        "lat": -64.76094796737277,
        "lon": 21.73445980781942,
        "alt_km": 866.8578156590811,
        "timestamp": "2025-12-15T20:48:54.164010+00:00",
        "meta_object_name": "FENGYUN 1C DEB",
        "meta_object_id": "1999-025BEY",
        "meta_epoch": "2025-12-12T23:33:01.289952",
        "meta_mean_motion": 14.12169943,
        "meta_eccentricity": 0.00106903,
        "meta_inclination": 98.6903,
        "meta_ra_of_asc_node": 0.0048,
        "meta_arg_of_pericenter": 119.7825,
        "meta_mean_anomaly": 270.232,
        "meta_ephemeris_type": 0,
        "meta_classification_type": "U",
        "meta_norad_cat_id": 31054,
        "meta_element_set_no": 999,
        "meta_rev_at_epoch": 96767,
        "meta_bstar": 0.00024010055,
        "meta_mean_motion_dot": 3.99e-06,
        "meta_mean_motion_ddot": 0,
        "tle_line1": "1 31054U 99025BEY 25346.98126493  .00000399  00000+0  24010-3 0  9990",
        "tle_line2": "2 31054  98.6903   0.0048 0010690 119.7825 270.2320 14.12169943967672"
      },
      "geometry": {
        "type": "Point",
        "coordinates": [
          21.73445980781942,
          -64.76094796737277
        ]
      }
    },
    {
      "type": "Feature",
      "properties": {
        "norad_id": 31055,
        "name": "FENGYUN 1C DEB",
        "group": "fengyun-1c-debris",
        "lat": 36.16236599186362,
        "lon": 14.525879662936866,
        "alt_km": 867.4832370941713,
        "timestamp": "2025-12-15T20:48:54.164022+00:00",
        "meta_object_name": "FENGYUN 1C DEB",
        "meta_object_id": "1999-025BEZ",
        "meta_epoch": "2025-12-13T20:05:10.917024",
        "meta_mean_motion": 14.10378167,
        "meta_eccentricity": 0.00240071,
        "meta_inclination": 98.7599,
        "meta_ra_of_asc_node": 19.0187,
        "meta_arg_of_pericenter": 268.7579,
        "meta_mean_anomaly": 264.6453,
        "meta_ephemeris_type": 0,
        "meta_classification_type": "U",
        "meta_norad_cat_id": 31055,
        "meta_element_set_no": 999,
        "meta_rev_at_epoch": 96137,
        "meta_bstar": 0.0004813979,
        "meta_mean_motion_dot": 8.14e-06,
        "meta_mean_motion_ddot": 0,
        "tle_line1": "1 31055U 99025BEZ 25347.83693191  .00000814  00000+0  48140-3 0  9992",
        "tle_line2": "2 31055  98.7599  19.0187 0024007 268.7579 264.6453 14.10378167961370"
      },
      "geometry": {
        "type": "Point",
        "coordinates": [
          14.525879662936866,
          36.16236599186362
        ]
      }
    },
    {
      "type": "Feature",
      "properties": {
        "norad_id": 31056,
        "name": "FENGYUN 1C DEB",
        "group": "fengyun-1c-debris",
        "lat": 43.29934487964167,
        "lon": -35.93089225564143,
        "alt_km": 834.6391824093052,
        "timestamp": "2025-12-15T20:48:54.164032+00:00",
        "meta_object_name": "FENGYUN 1C DEB",
        "meta_object_id": "1999-025BFA",
        "meta_epoch": "2025-12-12T10:08:21.253344",
        "meta_mean_motion": 14.14305059,
        "meta_eccentricity": 0.00254469,
        "meta_inclination": 98.6669,
        "meta_ra_of_asc_node": 328.991,
        "meta_arg_of_pericenter": 343.9431,
        "meta_mean_anomaly": 170.2622,
        "meta_ephemeris_type": 0,
        "meta_classification_type": "U",
        "meta_norad_cat_id": 31056,
        "meta_element_set_no": 999,
        "meta_rev_at_epoch": 96813,
        "meta_bstar": 0.00057540958,
        "meta_mean_motion_dot": 1.06e-05,
        "meta_mean_motion_ddot": 0,
        "tle_line1": "1 31056U 99025BFA 25346.42246821  .00001060  00000+0  57541-3 0  9990",
        "tle_line2": "2 31056  98.6669 328.9910 0025446 343.9431 170.2622 14.14305059968130"
      },
      "geometry": {
        "type": "Point",
        "coordinates": [
          -35.93089225564143,
          43.29934487964167
        ]
      }
    },
    {
      "type": "Feature",
      "properties": {
        "norad_id": 31057,
        "name": "FENGYUN 1C DEB",
        "group": "fengyun-1c-debris",
        "lat": -51.07839121946757,
        "lon": 41.414357337831696,
        "alt_km": 597.2242863005749,
        "timestamp": "2025-12-15T20:48:54.164044+00:00",
        "meta_object_name": "FENGYUN 1C DEB",
        "meta_object_id": "1999-025BFB",
        "meta_epoch": "2025-12-07T08:31:09.738912",
        "meta_mean_motion": 14.79274467,
        "meta_eccentricity": 0.0137797,
        "meta_inclination": 99.2572,
        "meta_ra_of_asc_node": 19.9678,
        "meta_arg_of_pericenter": 268.7892,
        "meta_mean_anomaly": 89.7526,
        "meta_ephemeris_type": 0,
        "meta_classification_type": "U",
        "meta_norad_cat_id": 31057,
        "meta_element_set_no": 999,
        "meta_rev_at_epoch": 61873,
        "meta_bstar": 0.0014079461,
        "meta_mean_motion_dot": 0.00012236,
        "meta_mean_motion_ddot": 0,
        "tle_line1": "1 31057U 99025BFB 25341.35497383  .00012236  00000+0  14079-2 0  9994",
        "tle_line2": "2 31057  99.2572  19.9678 0137797 268.7892  89.7526 14.79274467618731"
      },
      "geometry": {
        "type": "Point",
        "coordinates": [
          41.414357337831696,
          -51.07839121946757
        ]
      }
    },
    {
      "type": "Feature",
      "properties": {
        "norad_id": 31058,
        "name": "FENGYUN 1C DEB",
        "group": "fengyun-1c-debris",
        "lat": 73.79193430914034,
        "lon": -95.74672345141097,
        "alt_km": 570.639869294916,
        "timestamp": "2025-12-15T20:48:54.164056+00:00",
        "meta_object_name": "FENGYUN 1C DEB",
        "meta_object_id": "1999-025BFC",
        "meta_epoch": "2025-12-13T01:46:58.731168",
        "meta_mean_motion": 14.76336624,
        "meta_eccentricity": 0.00951509,
        "meta_inclination": 99.5659,
        "meta_ra_of_asc_node": 296.4111,
        "meta_arg_of_pericenter": 105.1119,
        "meta_mean_anomaly": 256.0635,
        "meta_ephemeris_type": 0,
        "meta_classification_type": "U",
        "meta_norad_cat_id": 31058,
        "meta_element_set_no": 999,
        "meta_rev_at_epoch": 99554,
        "meta_bstar": 0.0017482376,
        "meta_mean_motion_dot": 0.00013017,
        "meta_mean_motion_ddot": 0,
        "tle_line1": "1 31058U 99025BFC 25347.07429087  .00013017  00000+0  17482-2 0  9995",
        "tle_line2": "2 31058  99.5659 296.4111 0095150 105.1119 256.0635 14.76336624995545"
      },
      "geometry": {
        "type": "Point",
        "coordinates": [
          -95.74672345141097,
          73.79193430914034
        ]
      }
    }
  ]
}